NOAA 15                 
1 25338U 98030A   24241.54564170  .00000565  00000+0  25142-3 0  9998
2 25338  98.5661 267.1541 0011455 111.5728 248.6674 14.26681471367503
NOAA 18                 
1 28654U 05018A   24241.56330467  .00000554  00000+0  31880-3 0  9992
2 28654  98.8707 317.9185 0013745 214.4318 145.5964 14.13301686993393
NOAA 19                 
1 33591U 09005A   24241.52509027  .00000510  00000+0  29733-3 0  9990
2 33591  99.0412 298.0706 0014843  89.2314 271.0558 14.13094445801582
METOP-B                 
1 38771U 12049A   24241.53395513  .00000412  00000+0  20797-3 0  9993
2 38771  98.6220 297.1109 0000944 109.3252 250.8028 14.21487918619830
SARAL                   
1 39086U 13009A   24241.58493437  .00000464  00000+0  18733-3 0  9993
2 39086  98.5530  65.7055 0003028  77.9276 282.2247 14.32484057601447
METOP-C                 
1 43689U 18087A   24241.57126212  .00000402  00000+0  20369-3 0  9991
2 43689  98.7178 299.9818 0001150 202.9303 157.1823 14.21505548301404
ANGELS                  
1 44876U 19092D   24241.52064713  .00017192  00000+0  61746-3 0  9997
2 44876  97.4743  70.2518 0010694  68.1270 292.1106 15.28678485260409
OTB-3-GAZELLE           
1 54023U 22127A   24241.55457584  .00000668  00000+0  21567-3 0  9997
2 54023  98.3484 234.2740 0013705  18.7739 341.3954 14.42192747 99553
EOS-6 (OCEANSAT-3)      
1 54361U 22158A   24241.55473773  .00001539  00000+0  43544-3 0  9991
2 54361  98.3536 337.6139 0001589  69.3181 290.8182 14.46955219 92735
